start=new Date('2022-03-24T00:00:00.000Z').valueOf();
sats=[{"FILE":"3371636","MEAN_MOTION":"15.06399600","ARG_OF_PERICENTER":"71.9535","RCS_SIZE":"LARGE","COUNTRY_CODE":"US","MEAN_ELEMENT_THEORY":"SGP4","NORAD_CAT_ID":"46144","LAUNCH_DATE":"2020-08-18","EPHEMERIS_TYPE":"0","TLE_LINE2":"2 46144  53.0552 311.4469 0001639  71.9535 288.1632 15.06399600 76538","MEAN_ANOMALY":"288.1632","SITE":"AFETR","REV_AT_EPOCH":"7653","GP_ID":"199536425","APOAPSIS":"548.350","PERIAPSIS":"546.080","SEMIMAJOR_AXIS":"6925.350","REF_FRAME":"TEME","OBJECT_NAME":"STARLINK-1606","MEAN_MOTION_DDOT":"0.0000000000000","MEAN_MOTION_DOT":"0.00000617","DECAY_DATE":null,"OBJECT_ID":"2020-057AD","PERIOD":"95.592","BSTAR":"0.00006028900000","CLASSIFICATION_TYPE":"U","EPOCH":"2022-03-23T21:58:38.351424","TLE_LINE1":"1 46144U 20057AD  22082.91572166  .00000617  00000-0  60289-4 0  9997","CENTER_NAME":"EARTH","INCLINATION":"53.0552","ELEMENT_SET_NO":"999","OBJECT_TYPE":"PAYLOAD","ECCENTRICITY":"0.00016390","TIME_SYSTEM":"UTC","RA_OF_ASC_NODE":"311.4469"},{"FILE":"3371259","MEAN_MOTION":"15.06402537","ARG_OF_PERICENTER":"61.4177","RCS_SIZE":"LARGE","COUNTRY_CODE":"US","MEAN_ELEMENT_THEORY":"SGP4","NORAD_CAT_ID":"46146","LAUNCH_DATE":"2020-08-18","TLE_LINE2":"2 46146  53.0546 331.8189 0001808  61.4177 298.6993 15.06402537 88658","EPHEMERIS_TYPE":"0","MEAN_ANOMALY":"298.6993","SITE":"AFETR","REV_AT_EPOCH":"8865","GP_ID":"199507406","PERIAPSIS":"545.954","APOAPSIS":"548.458","SEMIMAJOR_AXIS":"6925.341","REF_FRAME":"TEME","OBJECT_NAME":"STARLINK-1608","MEAN_MOTION_DDOT":"0.0000000000000","MEAN_MOTION_DOT":"0.00000846","DECAY_DATE":null,"OBJECT_ID":"2020-057AF","PERIOD":"95.592","BSTAR":"0.00007568500000","CLASSIFICATION_TYPE":"U","EPOCH":"2022-03-23T19:53:54.045600","TLE_LINE1":"1 46146U 20057AF  22082.82909775  .00000846  00000-0  75685-4 0  9999","CENTER_NAME":"EARTH","INCLINATION":"53.0546","ELEMENT_SET_NO":"999","OBJECT_TYPE":"PAYLOAD","ECCENTRICITY":"0.00018080","TIME_SYSTEM":"UTC","RA_OF_ASC_NODE":"331.8189"},{"MEAN_MOTION_DDOT":"0.0000000000000","OBJECT_NAME":"STARLINK-1611","REF_FRAME":"TEME","SEMIMAJOR_AXIS":"6925.389","PERIAPSIS":"545.991","APOAPSIS":"548.517","EPOCH":"2022-03-23T21:02:55.099104","CLASSIFICATION_TYPE":"U","BSTAR":"0.00064410000000","PERIOD":"95.593","OBJECT_ID":"2020-057AG","MEAN_MOTION_DOT":"0.00009322","DECAY_DATE":null,"OBJECT_TYPE":"PAYLOAD","ELEMENT_SET_NO":"999","CENTER_NAME":"EARTH","INCLINATION":"53.0559","TLE_LINE1":"1 46147U 20057AG  22082.87702661  .00009322  00000-0  64410-3 0  9991","RA_OF_ASC_NODE":"331.6073","TIME_SYSTEM":"UTC","ECCENTRICITY":"0.00018240","ARG_OF_PERICENTER":"56.2780","MEAN_MOTION":"15.06386843","FILE":"3371636","LAUNCH_DATE":"2020-08-18","NORAD_CAT_ID":"46147","MEAN_ELEMENT_THEORY":"SGP4","COUNTRY_CODE":"US","RCS_SIZE":"LARGE","TLE_LINE2":"2 46147  53.0559 331.6073 0001824  56.2780 303.8383 15.06386843 89253","EPHEMERIS_TYPE":"0","GP_ID":"199534923","REV_AT_EPOCH":"8925","SITE":"AFETR","MEAN_ANOMALY":"303.8383"},{"MEAN_ELEMENT_THEORY":"SGP4","NORAD_CAT_ID":"46148","LAUNCH_DATE":"2020-08-18","RCS_SIZE":"LARGE","COUNTRY_CODE":"US","FILE":"3371636","MEAN_MOTION":"15.06396072","ARG_OF_PERICENTER":"73.4147","REV_AT_EPOCH":"8827","GP_ID":"199536175","MEAN_ANOMALY":"286.7027","SITE":"AFETR","EPHEMERIS_TYPE":"0","TLE_LINE2":"2 46148  53.0567 311.5847 0001689  73.4147 286.7027 15.06396072 88276","BSTAR":"-0.00004188800000","CLASSIFICATION_TYPE":"U","EPOCH":"2022-03-23T21:10:52.501440","DECAY_DATE":null,"MEAN_MOTION_DOT":"-0.00000905","OBJECT_ID":"2020-057AH","PERIOD":"95.592","REF_FRAME":"TEME","OBJECT_NAME":"STARLINK-1616","MEAN_MOTION_DDOT":"0.0000000000000","PERIAPSIS":"546.056","APOAPSIS":"548.395","SEMIMAJOR_AXIS":"6925.361","RA_OF_ASC_NODE":"311.5847","ECCENTRICITY":"0.00016890","TIME_SYSTEM":"UTC","ELEMENT_SET_NO":"999","OBJECT_TYPE":"PAYLOAD","TLE_LINE1":"1 46148U 20057AH  22082.88255210 -.00000905  00000-0 -41888-4 0  9991","CENTER_NAME":"EARTH","INCLINATION":"53.0567"},{"BSTAR":"0.00045665000000","EPOCH":"2022-03-23T21:32:05.490528","CLASSIFICATION_TYPE":"U","DECAY_DATE":null,"MEAN_MOTION_DOT":"0.00006529","PERIOD":"95.591","OBJECT_ID":"2020-057AJ","OBJECT_NAME":"STARLINK-1620","REF_FRAME":"TEME","MEAN_MOTION_DDOT":"0.0000000000000","APOAPSIS":"548.353","PERIAPSIS":"545.992","SEMIMAJOR_AXIS":"6925.308","RA_OF_ASC_NODE":"311.5292","ECCENTRICITY":"0.00017050","TIME_SYSTEM":"UTC","ELEMENT_SET_NO":"999","OBJECT_TYPE":"PAYLOAD","TLE_LINE1":"1 46149U 20057AJ  22082.89728577  .00006529  00000-0  45665-3 0  9996","INCLINATION":"53.0543","CENTER_NAME":"EARTH","NORAD_CAT_ID":"46149","MEAN_ELEMENT_THEORY":"SGP4","LAUNCH_DATE":"2020-08-18","RCS_SIZE":"LARGE","COUNTRY_CODE":"US","MEAN_MOTION":"15.06413320","FILE":"3371636","ARG_OF_PERICENTER":"76.1086","REV_AT_EPOCH":"8955","GP_ID":"199535925","SITE":"AFETR","MEAN_ANOMALY":"284.0093","EPHEMERIS_TYPE":"0","TLE_LINE2":"2 46149  53.0543 311.5292 0001705  76.1086 284.0093 15.06413320 89558"},{"REV_AT_EPOCH":"8800","GP_ID":"199535174","MEAN_ANOMALY":"299.3263","SITE":"AFETR","TLE_LINE2":"2 46150  53.0559 331.5398 0001400  60.7865 299.3263 15.06399473 88001","EPHEMERIS_TYPE":"0","MEAN_ELEMENT_THEORY":"SGP4","NORAD_CAT_ID":"46150","LAUNCH_DATE":"2020-08-18","RCS_SIZE":"LARGE","COUNTRY_CODE":"US","FILE":"3371636","MEAN_MOTION":"15.06399473","ARG_OF_PERICENTER":"60.7865","RA_OF_ASC_NODE":"331.5398","ECCENTRICITY":"0.00014000","TIME_SYSTEM":"UTC","ELEMENT_SET_NO":"999","OBJECT_TYPE":"PAYLOAD","TLE_LINE1":"1 46150U 20057AK  22082.89175709  .00000178  00000-0  30871-4 0  9999","INCLINATION":"53.0559","CENTER_NAME":"EARTH","BSTAR":"0.00003087100000","CLASSIFICATION_TYPE":"U","EPOCH":"2022-03-23T21:24:07.812576","DECAY_DATE":null,"MEAN_MOTION_DOT":"0.00000178","OBJECT_ID":"2020-057AK","PERIOD":"95.592","REF_FRAME":"TEME","OBJECT_NAME":"STARLINK-1629","MEAN_MOTION_DDOT":"0.0000000000000","APOAPSIS":"548.185","PERIAPSIS":"546.246","SEMIMAJOR_AXIS":"6925.350"},{"ECCENTRICITY":"0.00015870","TIME_SYSTEM":"UTC","RA_OF_ASC_NODE":"311.6522","TLE_LINE1":"1 46151U 20057AL  22082.86779946  .00003297  00000-0  24007-3 0  9998","CENTER_NAME":"EARTH","INCLINATION":"53.0537","ELEMENT_SET_NO":"999","OBJECT_TYPE":"PAYLOAD","DECAY_DATE":null,"MEAN_MOTION_DOT":"0.00003297","OBJECT_ID":"2020-057AL","PERIOD":"95.591","BSTAR":"0.00024007000000","CLASSIFICATION_TYPE":"U","EPOCH":"2022-03-23T20:49:37.873344","PERIAPSIS":"546.073","APOAPSIS":"548.271","SEMIMAJOR_AXIS":"6925.307","REF_FRAME":"TEME","OBJECT_NAME":"STARLINK-1631","MEAN_MOTION_DDOT":"0.0000000000000","MEAN_ANOMALY":"290.0379","SITE":"AFETR","REV_AT_EPOCH":"8827","GP_ID":"199535424","TLE_LINE2":"2 46151  53.0537 311.6522 0001587  70.0780 290.0379 15.06413479 88270","EPHEMERIS_TYPE":"0","RCS_SIZE":"LARGE","COUNTRY_CODE":"US","MEAN_ELEMENT_THEORY":"SGP4","NORAD_CAT_ID":"46151","LAUNCH_DATE":"2020-08-18","FILE":"3371636","MEAN_MOTION":"15.06413479","ARG_OF_PERICENTER":"70.0780"},{"EPHEMERIS_TYPE":"0","TLE_LINE2":"2 46152  53.0554 331.7328 0001664  69.5317 290.5850 15.06396327 87991","GP_ID":"199535675","REV_AT_EPOCH":"8799","MEAN_ANOMALY":"290.5850","SITE":"AFETR","ARG_OF_PERICENTER":"69.5317","FILE":"3371636","MEAN_MOTION":"15.06396327","LAUNCH_DATE":"2020-08-18","MEAN_ELEMENT_THEORY":"SGP4","NORAD_CAT_ID":"46152","COUNTRY_CODE":"US","RCS_SIZE":"LARGE","OBJECT_TYPE":"PAYLOAD","ELEMENT_SET_NO":"999","CENTER_NAME":"EARTH","INCLINATION":"53.0554","TLE_LINE1":"1 46152U 20057AM  22082.85121502 -.00000635  00000-0 -23733-4 0  9998","RA_OF_ASC_NODE":"331.7328","TIME_SYSTEM":"UTC","ECCENTRICITY":"0.00016640","MEAN_MOTION_DDOT":"0.0000000000000","REF_FRAME":"TEME","OBJECT_NAME":"STARLINK-1634","SEMIMAJOR_AXIS":"6925.360","APOAPSIS":"548.377","PERIAPSIS":"546.072","CLASSIFICATION_TYPE":"U","EPOCH":"2022-03-23T20:25:44.977728","BSTAR":"-0.00002373300000","OBJECT_ID":"2020-057AM","PERIOD":"95.592","MEAN_MOTION_DOT":"-0.00000635","DECAY_DATE":null},{"TLE_LINE1":"1 46153U 20057AN  22082.88622846  .00003073  00000-0  22503-3 0  9999","CENTER_NAME":"EARTH","INCLINATION":"53.0548","ELEMENT_SET_NO":"999","OBJECT_TYPE":"PAYLOAD","ECCENTRICITY":"0.00015790","TIME_SYSTEM":"UTC","RA_OF_ASC_NODE":"311.5830","PERIAPSIS":"546.096","APOAPSIS":"548.283","SEMIMAJOR_AXIS":"6925.325","OBJECT_NAME":"STARLINK-1636","REF_FRAME":"TEME","MEAN_MOTION_DDOT":"0.0000000000000","MEAN_MOTION_DOT":"0.00003073","DECAY_DATE":null,"PERIOD":"95.592","OBJECT_ID":"2020-057AN","BSTAR":"0.00022503000000","EPOCH":"2022-03-23T21:16:10.138944","CLASSIFICATION_TYPE":"U","EPHEMERIS_TYPE":"0","TLE_LINE2":"2 46153  53.0548 311.5830 0001579  63.5913 296.5238 15.06407816 88274","SITE":"AFETR","MEAN_ANOMALY":"296.5238","REV_AT_EPOCH":"8827","GP_ID":"199536426","MEAN_MOTION":"15.06407816","FILE":"3371636","ARG_OF_PERICENTER":"63.5913","RCS_SIZE":"LARGE","COUNTRY_CODE":"US","NORAD_CAT_ID":"46153","MEAN_ELEMENT_THEORY":"SGP4","LAUNCH_DATE":"2020-08-18"},{"MEAN_ELEMENT_THEORY":"SGP4","NORAD_CAT_ID":"46154","LAUNCH_DATE":"2020-08-18","RCS_SIZE":"LARGE","COUNTRY_CODE":"US","FILE":"3371636","MEAN_MOTION":"15.06401526","ARG_OF_PERICENTER":"64.0414","REV_AT_EPOCH":"8812","GP_ID":"199534674","MEAN_ANOMALY":"296.0738","SITE":"AFETR","EPHEMERIS_TYPE":"0","TLE_LINE2":"2 46154  53.0558 322.1325 0001580  64.0414 296.0738 15.06401526 88123","BSTAR":"-0.00005865900000","CLASSIFICATION_TYPE":"U","EPOCH":"2022-03-23T18:19:41.704032","DECAY_DATE":null,"MEAN_MOTION_DOT":"-0.00001155","OBJECT_ID":"2020-057AP","PERIOD":"95.592","REF_FRAME":"TEME","OBJECT_NAME":"STARLINK-1642","MEAN_MOTION_DDOT":"0.0000000000000","PERIAPSIS":"546.115","APOAPSIS":"548.303","SEMIMAJOR_AXIS":"6925.344","RA_OF_ASC_NODE":"322.1325","ECCENTRICITY":"0.00015800","TIME_SYSTEM":"UTC","ELEMENT_SET_NO":"999","OBJECT_TYPE":"PAYLOAD","TLE_LINE1":"1 46154U 20057AP  22082.76367713 -.00001155  00000-0 -58659-4 0  9999","CENTER_NAME":"EARTH","INCLINATION":"53.0558"}];
